{
"type": "FeatureCollection",
"name": "NewDevelopments",
"crs": { "type": "name", "properties": { "name": "urn:ogc:def:crs:OGC:1.3:CRS84" } },
"features": [
{"type":"Feature","properties":{"id":1,"name":"Aspern Seestadt","start_date":2007,"completion":2036,"units":11500,"residents":25000,"subsidised":7000},"geometry":{"type":"MultiPolygon","coordinates":[[[[16.499020886337803,48.23421981496822],[16.5104989157626,48.234927812760503],[16.512453605319362,48.234604596377103],[16.515316379000915,48.232665298076711],[16.516132115587595,48.231726431439213],[16.516085941818538,48.231095389928761],[16.511045305363112,48.220490814301911],[16.510283438173662,48.219651990830705],[16.508998268268233,48.219559643292591],[16.506320189662905,48.220075250380397],[16.498224388821512,48.22216846124433],[16.49723165278678,48.222291591295146],[16.496800697608911,48.222153069987975],[16.49521924601877,48.222368547576899],[16.499975144231648,48.233634947226832],[16.499020886337803,48.23421981496822]]]]}},
{"type":"Feature","properties":{"id":3,"name":"Sonnwendviertel","start_date":2012,"completion":2023,"units":5500,"residents":13000,"subsidised":2000},"geometry":{"type":"MultiPolygon","coordinates":[[[[16.383031995698836,48.183022774982945],[16.384237445726875,48.182487029221811],[16.385479406092792,48.181708734059171],[16.386874541570499,48.180185262676972],[16.389507497546241,48.177875216396359],[16.390873653948745,48.177154879384126],[16.39068322002597,48.176682934445083],[16.389979442485288,48.176186150298712],[16.388720922647828,48.176426262636134],[16.383913042264975,48.17754001513471],[16.380705967703591,48.177746923170929],[16.379912820231421,48.178609039988501],[16.379015462013928,48.18148667119123],[16.383031995698836,48.183022774982945]]]]}},
{"type":"Feature","properties":{"id":4,"name":"Wienerberg","start_date":2014,"completion":2021,"units":990,"residents":2000,"subsidised":800},"geometry":{"type":"MultiPolygon","coordinates":[[[[16.351067904960754,48.167907670110054],[16.352227402509627,48.167100316261205],[16.351145204797344,48.165167820346419],[16.350732939002189,48.165253709053744],[16.350612694811936,48.165099109380563],[16.350329262077768,48.16510769825129],[16.35026913998264,48.164961687448844],[16.347692478762923,48.165640208236702],[16.348699523856297,48.167227002104518],[16.350161779098485,48.166782528044124],[16.350410856349725,48.167229149322203],[16.350797355532681,48.167150775876785],[16.350947660770498,48.167396632301489],[16.351162382538806,48.167843253579576],[16.351070052178436,48.167907670110068],[16.351067904960754,48.167907670110054]]]]}},
{"type":"Feature","properties":{"id":5,"name":"Rothneusiedl","start_date":2026,"completion":2040,"units":9000,"residents":21000,"subsidised":6000},"geometry":{"type":"MultiPolygon","coordinates":[[[[16.387909865967359,48.129343640521604],[16.387708027505163,48.129274929555741],[16.387875510484442,48.128901313678881],[16.38781109395395,48.128665119733739],[16.387622138797838,48.128609292073982],[16.387338706063666,48.128394570305673],[16.386634418663611,48.128433220223968],[16.386256508351387,48.128343037081279],[16.385827064814766,48.128162670795902],[16.385298849264721,48.127810527095868],[16.38439701783782,48.127612983069021],[16.380703803422893,48.127604394198286],[16.375039443174881,48.127424027912902],[16.373888534496739,48.12753138879706],[16.373360318946691,48.12775899387146],[16.373033941858861,48.128076782088563],[16.372935169845437,48.128244265067842],[16.372522904050282,48.128712358522755],[16.371784261167296,48.128922785855707],[16.371694078024607,48.12902155786913],[16.371522300609961,48.129103152141091],[16.371363406501409,48.129137507624016],[16.371122918120903,48.129055913352062],[16.370869546434296,48.129098857705721],[16.369765876545184,48.129343640521597],[16.369744404368355,48.129420940358187],[16.369645632354931,48.129459590276483],[16.369624160178102,48.129575540031368],[16.369727226626889,48.129721550833821],[16.369899004041535,48.13006081122775],[16.371788555602663,48.134454018607371],[16.372535787356377,48.13590553776114],[16.373995895380883,48.138465021239398],[16.37833327510074,48.137949688995455],[16.379295228622766,48.13795827786619],[16.380360248593583,48.137855211417403],[16.383143042710884,48.13761472303689],[16.384190884940235,48.135776704700156],[16.384723394925643,48.137253990466128],[16.387420300335616,48.136395103392886],[16.385943014569641,48.132650355753576],[16.387909865967359,48.129343640521604]]]]}},
{"type":"Feature","properties":{"id":6,"name":"Village im Dritten","start_date":2020,"completion":2027,"units":2000,"residents":4000,"subsidised":742},"geometry":{"type":"MultiPolygon","coordinates":[[[[16.390881615240794,48.188211760521426],[16.391328236518881,48.188812981472694],[16.391534369416458,48.189414202423961],[16.391912279728682,48.189740579511792],[16.392599389387275,48.189620335321543],[16.39380183128981,48.189809290477655],[16.394506118689865,48.189689046287398],[16.398663132124344,48.188022805365314],[16.39620671509488,48.186150431545656],[16.394798140294768,48.187078029584754],[16.393458276460514,48.187713606018946],[16.392221479075047,48.188074338589708],[16.390881615240794,48.188211760521426]]]]}},
{"type":"Feature","properties":{"id":7,"name":"Neu Leopoldau","start_date":2016,"completion":2024,"units":1280,"residents":2500,"subsidised":1000},"geometry":{"type":"MultiPolygon","coordinates":[[[[16.426181873950942,48.273207225289219],[16.427513148914461,48.278399197646948],[16.428827246136517,48.278205948055472],[16.428775712912124,48.27784521548471],[16.432640704741701,48.277467305172486],[16.432142550239224,48.275680820060153],[16.434221056956464,48.275371620713784],[16.433980568575954,48.274289423001505],[16.426491073297306,48.27257164885502],[16.426181873950942,48.273207225289219]]]]}},
{"type":"Feature","properties":{"id":8,"name":"Nordwestbahnhof","start_date":2024,"completion":2035,"units":6500,"residents":16000,"subsidised":3900},"geometry":{"type":"MultiPolygon","coordinates":[[[[16.383276170207267,48.225354332003668],[16.373665223857724,48.23761065053877],[16.374962143338315,48.238117393911985],[16.377422854803143,48.235849932038647],[16.37762039882999,48.235910054133775],[16.380501964960708,48.234329701919009],[16.384066346314651,48.232070828916392],[16.387244228485635,48.229193557221038],[16.387665083151521,48.228085592896555],[16.387544838961269,48.227389894367235],[16.383276170207267,48.225354332003668]]]]}},
{"type":"Feature","properties":{"id":2,"name":"Nordbahnviertel","start_date":2018,"completion":2026,"units":10000,"residents":20000,"subsidised":6600},"geometry":{"type":"MultiPolygon","coordinates":[[[[16.402029969451466,48.223984407121804],[16.393372387753214,48.219449483375101],[16.390121500180996,48.219123106287263],[16.389164824328979,48.223711763913755],[16.38916194630805,48.223711434693648],[16.38806916710703,48.229436982056761],[16.386699345291664,48.230514370001437],[16.391439852248219,48.233007753530529],[16.394949058696575,48.229806372209218],[16.394944431278088,48.229803904252691],[16.402029969451466,48.223984407121804]]]]}},
{"type":"Feature","properties":{"id":9,"name":"Wolfganggasse","start_date":2018,"completion":2023,"units":850,"residents":2000,"subsidised":850},"geometry":{"type":"MultiPolygon","coordinates":[[[[16.345824399378696,48.178437625627907],[16.344673490700558,48.17993638357072],[16.344896801339598,48.180022272278045],[16.344905390210332,48.180365827107345],[16.346408442588501,48.180297116141482],[16.345987587922615,48.180958459187877],[16.347507818042246,48.181362136112298],[16.348263638666698,48.18060631548785],[16.348985103808218,48.180219816304891],[16.348942159454555,48.180056627760976],[16.347859961742273,48.179244979476756],[16.345824399378696,48.178437625627907]]]]}},
{"type":"Feature","properties":{"id":9,"name":"Berresgasse","start_date":2017,"completion":2024,"units":3000,"residents":7000,"subsidised":3000},"geometry":{"type":"MultiPolygon","coordinates":[[[[16.482636521275005,48.2449541350149],[16.488004565482743,48.243167649902553],[16.488648730787677,48.2442154921319],[16.491577535707421,48.243854759561138],[16.491448702646437,48.24351979360258],[16.493054821473393,48.243399549412324],[16.492170167787958,48.241802019456095],[16.490795948470776,48.241965208000018],[16.490014361234127,48.240032712085224],[16.488829097073058,48.239852345799846],[16.488562842080352,48.24015295627548],[16.480824269550467,48.242858450556199],[16.482636521275005,48.2449541350149]]]]}},
{"type":"Feature","properties":{"id":10,"name":"Donaufeld","start_date":2019,"completion":2035,"units":6000,"residents":14000,"subsidised":4000},"geometry":{"type":"MultiPolygon","coordinates":[[[[16.427667748587691,48.246491542875994],[16.424129133845945,48.24577007773447],[16.417945146918619,48.246010566114983],[16.410627429054621,48.248999493129851],[16.414097332830508,48.253225217530193],[16.421483761660365,48.253156506564331],[16.427976947934056,48.252022775627658],[16.427667748587691,48.246491542875994]]]]}},
{"type":"Feature","properties":{"id":11,"name":"Eibengasse","start_date":2025,"completion":null,"units":2600,"residents":6000,"subsidised":1733},"geometry":{"type":"MultiPolygon","coordinates":[[[[16.478599752030771,48.220802230515396],[16.478324908167334,48.220424320203172],[16.477191177230658,48.220767875032465],[16.475232914703671,48.218225569295676],[16.468842794878775,48.218989978790866],[16.471724361009496,48.222571537886267],[16.47222680994734,48.222412643777723],[16.472467298327846,48.222352521682595],[16.472755025497381,48.222730431994819],[16.478599752030771,48.220802230515396]]]]}},
{"type":"Feature","properties":{"id":12,"name":"Weichseltalweg","start_date":2026,"completion":null,"units":750,"residents":1500,"subsidised":500},"geometry":{"type":"MultiPolygon","coordinates":[[[[16.426186168386348,48.155063013929649],[16.425911324522907,48.155372213276038],[16.426899044657134,48.156256866961463],[16.42645242337905,48.156462999859038],[16.426963461187626,48.156896737831026],[16.427302721581562,48.156789376946861],[16.431099002445279,48.16044823587886],[16.432679354660038,48.159520637839762],[16.428874484925586,48.15596484535655],[16.427835231566966,48.154375904271056],[16.426186168386348,48.155063013929649]]]]}},
{"type":"Feature","properties":{"id":12,"name":"Am Heidjöchl","start_date":2030,"completion":null,"units":4900,"residents":11000,"subsidised":3200},"geometry":{"type":"MultiPolygon","coordinates":[[[[16.487572201730082,48.233848519024981],[16.488680372187456,48.236203381246909],[16.489287364859859,48.23611488152288],[16.489344120117657,48.236261098458229],[16.489784694830746,48.236160093338412],[16.489944379115403,48.236488119489422],[16.488943947452494,48.23674207521924],[16.489097860016017,48.237034509089938],[16.491858666624232,48.236386152416095],[16.4917393843875,48.236107185894703],[16.49204336170046,48.236036001334078],[16.49250125157695,48.237413518777615],[16.492728272608144,48.238109973127564],[16.490365714758042,48.238710232125314],[16.49113142976158,48.239752989743181],[16.49312844527331,48.239256621725815],[16.493320835977713,48.23982225039677],[16.493694073944258,48.239764533185451],[16.49379411711055,48.240068510498411],[16.499000209571758,48.239245078283538],[16.498473059041686,48.237717496090561],[16.504198606404799,48.236747846940354],[16.503898476905928,48.234993243716197],[16.503398261074473,48.234943222133055],[16.497818930646709,48.235828219373303],[16.49561798098831,48.235089439068382],[16.495271677720378,48.234966309017572],[16.494186594147529,48.234873961479458],[16.487841548716244,48.234416071602972],[16.487572201730082,48.233848519024981]]]]}},
{"type":"Feature","properties":{"id":13,"name":"In Der Wiesen Ost","start_date":null,"completion":null,"units":1900,"residents":null,"subsidised":1279},"geometry":{"type":"MultiPolygon","coordinates":[[[[16.316840842826409,48.144030918673181],[16.317087102928049,48.147951841228966],[16.31879553238317,48.148128840677018],[16.318683945774609,48.144977480938863],[16.31948044329085,48.145350718905405],[16.319472747662672,48.145000567823388],[16.319211096304681,48.144846655259862],[16.319272661330089,48.144446482594695],[16.318476163813855,48.144431091338348],[16.317895143886549,48.143988592718216],[16.316840842826409,48.144030918673181]]]]}},
{"type":"Feature","properties":{"id":15,"name":"Oberes Hausfeld","start_date":2023,"completion":2030,"units":3700,"residents":8000,"subsidised":2466},"geometry":{"type":"MultiPolygon","coordinates":[[[[16.487099182880932,48.233454240677354],[16.484695183255436,48.227374085982547],[16.478848880664255,48.228487221995906],[16.480036849350785,48.231461820754284],[16.480541969894663,48.232051128055474],[16.481496086477545,48.232677851693246],[16.482674701079926,48.233089431395669],[16.483610109494514,48.233239096742004],[16.487099182880932,48.233454240677354]]]]}},
{"type":"Feature","properties":{"id":16,"name":"Muthgasse","start_date":null,"completion":null,"units":2000,"residents":5000,"subsidised":null},"geometry":{"type":"MultiPolygon","coordinates":[[[[16.37007073724337,48.255242491730023],[16.371438354456668,48.25299792912805],[16.372002105063675,48.251473714523925],[16.371678470455958,48.250179176093027],[16.370738886110946,48.248404405663564],[16.368859717420921,48.246212042191871],[16.365247537605651,48.242411945507598],[16.363723323001523,48.242975696114605],[16.363639804393078,48.242913057158276],[16.363013414829734,48.242996575766718],[16.363472767176184,48.245418615411637],[16.364558509085974,48.247558779753049],[16.365873927168991,48.249959939745857],[16.366667353949225,48.250836885134532],[16.368682240377968,48.254480384427964],[16.369068513942029,48.254386425993467],[16.369319069767361,48.254814458861738],[16.37007073724337,48.255242491730023]]]]}},
{"type":"Feature","properties":{"id":17,"name":"Atzgersdorf","start_date":2017,"completion":null,"units":4900,"residents":null,"subsidised":3480},"geometry":{"type":"MultiPolygon","coordinates":[[[[16.305949325609411,48.152619001602709],[16.30522897761157,48.152493723690043],[16.304623467700338,48.15225360769076],[16.304195434832053,48.151856894300636],[16.301209644580126,48.152514603342141],[16.299883786671064,48.150395318652855],[16.29880848458733,48.148599668571272],[16.297472186852204,48.14743040805304],[16.296073250160742,48.146250707708745],[16.29506058703334,48.147033694662923],[16.294987508250955,48.147326009792479],[16.290550582177296,48.148108996746657],[16.289694516440729,48.148443071180438],[16.29272206599688,48.152128329778094],[16.295874893465697,48.154800925248345],[16.298004617981054,48.156419098286968],[16.292857783735606,48.157588358805206],[16.294131442514399,48.159874680711397],[16.300718972755536,48.158246067846704],[16.305928445957324,48.154487730466656],[16.305949325609411,48.152619001602709]]]]}},
{"type":"Feature","properties":{"id":17,"name":"Kurbadstraße","start_date":2023,"completion":2028,"units":600,"residents":null,"subsidised":400},"geometry":{"type":"MultiPolygon","coordinates":[[[[16.403356577527713,48.142890837609706],[16.408192639031135,48.141997522573782],[16.40748172863605,48.140360557848254],[16.402888873320418,48.141749639343914],[16.403356577527713,48.142890837609706]]]]}},
{"type":"Feature","properties":{"id":18,"name":"Am Kempelenpark","start_date":2026,"completion":2028,"units":1100,"residents":null,"subsidised":733},"geometry":{"type":"MultiPolygon","coordinates":[[[[16.397716064787744,48.172968895180816],[16.397769850771585,48.173048404896072],[16.397629539509396,48.1731980702424],[16.397049586292351,48.173497400935069],[16.39646027899116,48.173745284164937],[16.396319967728971,48.173352412630813],[16.395213847278718,48.173476354245729],[16.394965964048854,48.172968895180816],[16.393226104397719,48.173202747284463],[16.393899598456223,48.175326124385577],[16.394853715039105,48.175260645796556],[16.398455037435269,48.172968895180816],[16.398165060826749,48.172314109290603],[16.397528983104827,48.172407650132058],[16.397716064787744,48.172968895180816]]]]}},
{"type":"Feature","properties":{"id":19,"name":"Quartier Süssenbrunner","start_date":2026,"completion":2029,"units":1200,"residents":2800,"subsidised":800},"geometry":{"type":"MultiPolygon","coordinates":[[[[16.467696306804179,48.24342853400973],[16.473486484890479,48.248755684930813],[16.47324795574476,48.249055015623476],[16.475591153823306,48.251409906307195],[16.475986363878469,48.251344427718173],[16.476133690703765,48.251522155316948],[16.47744326248419,48.251388859617876],[16.46887492140656,48.242979537970726],[16.467696306804179,48.24342853400973]]]]}},
{"type":"Feature","properties":{"id":20,"name":"Am Rain","start_date":2024,"completion":2026,"units":500,"residents":null,"subsidised":100},"geometry":{"type":"MultiPolygon","coordinates":[[[[16.49266703443163,48.255462563263393],[16.490768155350011,48.251271933566031],[16.488934754857418,48.251426275954437],[16.489070389077533,48.251763022983688],[16.48987484031408,48.251575941300771],[16.491787750521915,48.25564964494631],[16.49266703443163,48.255462563263393]]]]}}
]
}
